STARLINK-37055          
1 68147U 26049F   26083.41668981 -.01742784  00000+0 -91149-2 0  9999
2 68147  97.2803 103.3475 0001232  92.4515 280.8575 15.83892291  2986
STARLINK-36981          
1 68148U 26049G   26083.41668981 -.01877751  00000+0 -96887-2 0  9997
2 68148  97.2790 103.3548 0001349  82.8479 307.7708 15.83893915  2985
STARLINK-36992          
1 68149U 26049H   26083.41668981 -.01877038  00000+0 -96198-2 0  9991
2 68149  97.2786 103.3565 0001236  92.7733 301.7343 15.84035432  2980
STARLINK-37060          
1 68150U 26049J   26083.41668981 -.01877539  00000+0 -95570-2 0  9992
2 68150  97.2783 103.3581 0001424  80.6626 317.7250 15.84176467  2981
STARLINK-37073          
1 68151U 26049K   26083.41668981 -.01889206  00000+0 -95889-2 0  9990
2 68151  97.2783 103.3593 0001170  86.2570 316.1937 15.84257848  2981
STARLINK-37049          
1 68152U 26049L   26083.41668981 -.01896068  00000+0 -96073-2 0  9991
2 68152  97.2780 103.3613 0001203  93.7711 312.8430 15.84303983  2982
STARLINK-37072          
1 68153U 26049M   26083.41668981 -.01912994  00000+0 -96509-2 0  9993
2 68153  97.2774 103.3628 0001413  94.1511 316.4286 15.84419084  2987
STARLINK-36241          
1 68154U 26049N   26083.41668981 -.01921985  00000+0 -96361-2 0  9990
2 68154  97.2774 103.3659 0001290  96.2904 322.4206 15.84564363  2995
STARLINK-37048          
1 68155U 26049P   26083.41668981 -.01929000  00000+0 -95910-2 0  9996
2 68155  97.2762 103.3693 0001400  81.8791 344.8325 15.84747393  2983
STARLINK-36313          
1 68156U 26049Q   26083.41668981 -.01921448  00000+0 -95808-2 0  9991
2 68156  97.2769 103.3671 0001308  80.7803 341.8519 15.84677133  2993
STARLINK-37064          
1 68157U 26049R   26083.41668981 -.01903440  00000+0 -95815-2 0  9992
2 68157  97.2769 103.3636 0001284  83.1109 331.6361 15.84451690  2983
STARLINK-37069          
1 68158U 26049S   26083.41668981 -.01922407  00000+0 -94241-2 0  9999
2 68158  97.2761 103.3724 0001475  86.2183 348.0830 15.85028790  2987
STARLINK-37053          
1 68159U 26049T   26083.41668981 -.01931871  00000+0 -94329-2 0  9992
2 68159  97.2761 103.3737 0001258  86.5708 351.6814 15.85128690  2989
STARLINK-36306          
1 68160U 26049U   26083.41668981 -.01930309  00000+0 -93709-2 0  9990
2 68160  97.2753 103.3748 0001472  95.4790 346.6483 15.85242946  2990
STARLINK-37057          
1 68161U 26049V   26083.41668981 -.01930653  00000+0 -95392-2 0  9993
2 68161  97.2761 103.3706 0001510  86.5361 344.0230 15.84878589  2980
STARLINK-37013          
1 68162U 26049W   26083.41668981 -.01965796  00000+0 -94441-2 0  9994
2 68162  97.2750 103.3820 0001586  84.6458  13.7937 15.85512533  2984
