[{"OBJECT_NAME":"STARLINK-37055","OBJECT_ID":"2026-049F","EPOCH":"2026-03-24T10:00:01.999584","MEAN_MOTION":15.83892291,"ECCENTRICITY":0.0001232,"INCLINATION":97.2803,"RA_OF_ASC_NODE":103.3475,"ARG_OF_PERICENTER":92.4515,"MEAN_ANOMALY":280.8575,"EPHEMERIS_TYPE":0,"CLASSIFICATION_TYPE":"U","NORAD_CAT_ID":68147,"ELEMENT_SET_NO":999,"REV_AT_EPOCH":298,"BSTAR":-0.0091149,"MEAN_MOTION_DOT":-0.01742784,"MEAN_MOTION_DDOT":0},{"OBJECT_NAME":"STARLINK-36981","OBJECT_ID":"2026-049G","EPOCH":"2026-03-24T10:00:01.999584","MEAN_MOTION":15.83893915,"ECCENTRICITY":0.0001349,"INCLINATION":97.279,"RA_OF_ASC_NODE":103.3548,"ARG_OF_PERICENTER":82.8479,"MEAN_ANOMALY":307.7708,"EPHEMERIS_TYPE":0,"CLASSIFICATION_TYPE":"U","NORAD_CAT_ID":68148,"ELEMENT_SET_NO":999,"REV_AT_EPOCH":298,"BSTAR":-0.0096887,"MEAN_MOTION_DOT":-0.01877751,"MEAN_MOTION_DDOT":0},{"OBJECT_NAME":"STARLINK-36992","OBJECT_ID":"2026-049H","EPOCH":"2026-03-24T10:00:01.999584","MEAN_MOTION":15.84035432,"ECCENTRICITY":0.0001236,"INCLINATION":97.2786,"RA_OF_ASC_NODE":103.3565,"ARG_OF_PERICENTER":92.7733,"MEAN_ANOMALY":301.7343,"EPHEMERIS_TYPE":0,"CLASSIFICATION_TYPE":"U","NORAD_CAT_ID":68149,"ELEMENT_SET_NO":999,"REV_AT_EPOCH":298,"BSTAR":-0.0096198,"MEAN_MOTION_DOT":-0.01877038,"MEAN_MOTION_DDOT":0},{"OBJECT_NAME":"STARLINK-37060","OBJECT_ID":"2026-049J","EPOCH":"2026-03-24T10:00:01.999584","MEAN_MOTION":15.84176467,"ECCENTRICITY":0.0001424,"INCLINATION":97.2783,"RA_OF_ASC_NODE":103.3581,"ARG_OF_PERICENTER":80.6626,"MEAN_ANOMALY":317.725,"EPHEMERIS_TYPE":0,"CLASSIFICATION_TYPE":"U","NORAD_CAT_ID":68150,"ELEMENT_SET_NO":999,"REV_AT_EPOCH":298,"BSTAR":-0.009557,"MEAN_MOTION_DOT":-0.01877539,"MEAN_MOTION_DDOT":0},{"OBJECT_NAME":"STARLINK-37073","OBJECT_ID":"2026-049K","EPOCH":"2026-03-24T10:00:01.999584","MEAN_MOTION":15.84257848,"ECCENTRICITY":0.000117,"INCLINATION":97.2783,"RA_OF_ASC_NODE":103.3593,"ARG_OF_PERICENTER":86.257,"MEAN_ANOMALY":316.1937,"EPHEMERIS_TYPE":0,"CLASSIFICATION_TYPE":"U","NORAD_CAT_ID":68151,"ELEMENT_SET_NO":999,"REV_AT_EPOCH":298,"BSTAR":-0.0095889,"MEAN_MOTION_DOT":-0.01889206,"MEAN_MOTION_DDOT":0},{"OBJECT_NAME":"STARLINK-37049","OBJECT_ID":"2026-049L","EPOCH":"2026-03-24T10:00:01.999584","MEAN_MOTION":15.84303983,"ECCENTRICITY":0.0001203,"INCLINATION":97.278,"RA_OF_ASC_NODE":103.3613,"ARG_OF_PERICENTER":93.7711,"MEAN_ANOMALY":312.843,"EPHEMERIS_TYPE":0,"CLASSIFICATION_TYPE":"U","NORAD_CAT_ID":68152,"ELEMENT_SET_NO":999,"REV_AT_EPOCH":298,"BSTAR":-0.0096073,"MEAN_MOTION_DOT":-0.01896068,"MEAN_MOTION_DDOT":0},{"OBJECT_NAME":"STARLINK-37072","OBJECT_ID":"2026-049M","EPOCH":"2026-03-24T10:00:01.999584","MEAN_MOTION":15.84419084,"ECCENTRICITY":0.0001413,"INCLINATION":97.2774,"RA_OF_ASC_NODE":103.3628,"ARG_OF_PERICENTER":94.1511,"MEAN_ANOMALY":316.4286,"EPHEMERIS_TYPE":0,"CLASSIFICATION_TYPE":"U","NORAD_CAT_ID":68153,"ELEMENT_SET_NO":999,"REV_AT_EPOCH":298,"BSTAR":-0.0096509,"MEAN_MOTION_DOT":-0.01912994,"MEAN_MOTION_DDOT":0},{"OBJECT_NAME":"STARLINK-36241","OBJECT_ID":"2026-049N","EPOCH":"2026-03-24T10:00:01.999584","MEAN_MOTION":15.84564363,"ECCENTRICITY":0.000129,"INCLINATION":97.2774,"RA_OF_ASC_NODE":103.3659,"ARG_OF_PERICENTER":96.2904,"MEAN_ANOMALY":322.4206,"EPHEMERIS_TYPE":0,"CLASSIFICATION_TYPE":"U","NORAD_CAT_ID":68154,"ELEMENT_SET_NO":999,"REV_AT_EPOCH":299,"BSTAR":-0.0096361,"MEAN_MOTION_DOT":-0.01921985,"MEAN_MOTION_DDOT":0},{"OBJECT_NAME":"STARLINK-37048","OBJECT_ID":"2026-049P","EPOCH":"2026-03-24T10:00:01.999584","MEAN_MOTION":15.84747393,"ECCENTRICITY":0.00014,"INCLINATION":97.2762,"RA_OF_ASC_NODE":103.3693,"ARG_OF_PERICENTER":81.8791,"MEAN_ANOMALY":344.8325,"EPHEMERIS_TYPE":0,"CLASSIFICATION_TYPE":"U","NORAD_CAT_ID":68155,"ELEMENT_SET_NO":999,"REV_AT_EPOCH":298,"BSTAR":-0.009591,"MEAN_MOTION_DOT":-0.01929,"MEAN_MOTION_DDOT":0},{"OBJECT_NAME":"STARLINK-36313","OBJECT_ID":"2026-049Q","EPOCH":"2026-03-24T10:00:01.999584","MEAN_MOTION":15.84677133,"ECCENTRICITY":0.0001308,"INCLINATION":97.2769,"RA_OF_ASC_NODE":103.3671,"ARG_OF_PERICENTER":80.7803,"MEAN_ANOMALY":341.8519,"EPHEMERIS_TYPE":0,"CLASSIFICATION_TYPE":"U","NORAD_CAT_ID":68156,"ELEMENT_SET_NO":999,"REV_AT_EPOCH":299,"BSTAR":-0.0095808,"MEAN_MOTION_DOT":-0.01921448,"MEAN_MOTION_DDOT":0},{"OBJECT_NAME":"STARLINK-37064","OBJECT_ID":"2026-049R","EPOCH":"2026-03-24T10:00:01.999584","MEAN_MOTION":15.8445169,"ECCENTRICITY":0.0001284,"INCLINATION":97.2769,"RA_OF_ASC_NODE":103.3636,"ARG_OF_PERICENTER":83.1109,"MEAN_ANOMALY":331.6361,"EPHEMERIS_TYPE":0,"CLASSIFICATION_TYPE":"U","NORAD_CAT_ID":68157,"ELEMENT_SET_NO":999,"REV_AT_EPOCH":298,"BSTAR":-0.0095815,"MEAN_MOTION_DOT":-0.0190344,"MEAN_MOTION_DDOT":0},{"OBJECT_NAME":"STARLINK-37069","OBJECT_ID":"2026-049S","EPOCH":"2026-03-24T10:00:01.999584","MEAN_MOTION":15.8502879,"ECCENTRICITY":0.0001475,"INCLINATION":97.2761,"RA_OF_ASC_NODE":103.3724,"ARG_OF_PERICENTER":86.2183,"MEAN_ANOMALY":348.083,"EPHEMERIS_TYPE":0,"CLASSIFICATION_TYPE":"U","NORAD_CAT_ID":68158,"ELEMENT_SET_NO":999,"REV_AT_EPOCH":298,"BSTAR":-0.0094241,"MEAN_MOTION_DOT":-0.01922407,"MEAN_MOTION_DDOT":0},{"OBJECT_NAME":"STARLINK-37053","OBJECT_ID":"2026-049T","EPOCH":"2026-03-24T10:00:01.999584","MEAN_MOTION":15.8512869,"ECCENTRICITY":0.0001258,"INCLINATION":97.2761,"RA_OF_ASC_NODE":103.3737,"ARG_OF_PERICENTER":86.5708,"MEAN_ANOMALY":351.6814,"EPHEMERIS_TYPE":0,"CLASSIFICATION_TYPE":"U","NORAD_CAT_ID":68159,"ELEMENT_SET_NO":999,"REV_AT_EPOCH":298,"BSTAR":-0.0094329,"MEAN_MOTION_DOT":-0.01931871,"MEAN_MOTION_DDOT":0},{"OBJECT_NAME":"STARLINK-36306","OBJECT_ID":"2026-049U","EPOCH":"2026-03-24T10:00:01.999584","MEAN_MOTION":15.85242946,"ECCENTRICITY":0.0001472,"INCLINATION":97.2753,"RA_OF_ASC_NODE":103.3748,"ARG_OF_PERICENTER":95.479,"MEAN_ANOMALY":346.6483,"EPHEMERIS_TYPE":0,"CLASSIFICATION_TYPE":"U","NORAD_CAT_ID":68160,"ELEMENT_SET_NO":999,"REV_AT_EPOCH":299,"BSTAR":-0.0093709,"MEAN_MOTION_DOT":-0.01930309,"MEAN_MOTION_DDOT":0},{"OBJECT_NAME":"STARLINK-37057","OBJECT_ID":"2026-049V","EPOCH":"2026-03-24T10:00:01.999584","MEAN_MOTION":15.84878589,"ECCENTRICITY":0.000151,"INCLINATION":97.2761,"RA_OF_ASC_NODE":103.3706,"ARG_OF_PERICENTER":86.5361,"MEAN_ANOMALY":344.023,"EPHEMERIS_TYPE":0,"CLASSIFICATION_TYPE":"U","NORAD_CAT_ID":68161,"ELEMENT_SET_NO":999,"REV_AT_EPOCH":298,"BSTAR":-0.0095392,"MEAN_MOTION_DOT":-0.01930653,"MEAN_MOTION_DDOT":0},{"OBJECT_NAME":"STARLINK-37013","OBJECT_ID":"2026-049W","EPOCH":"2026-03-24T10:00:01.999584","MEAN_MOTION":15.85512533,"ECCENTRICITY":0.0001586,"INCLINATION":97.275,"RA_OF_ASC_NODE":103.382,"ARG_OF_PERICENTER":84.6458,"MEAN_ANOMALY":13.7937,"EPHEMERIS_TYPE":0,"CLASSIFICATION_TYPE":"U","NORAD_CAT_ID":68162,"ELEMENT_SET_NO":999,"REV_AT_EPOCH":298,"BSTAR":-0.0094441,"MEAN_MOTION_DOT":-0.01965796,"MEAN_MOTION_DDOT":0}]
